CCSDS_OMM_VERS = 2.0
CREATION_DATE  = 
ORIGINATOR     = 

OBJECT_NAME    = UNKNOWN
OBJECT_ID      = 
CENTER_NAME    = EARTH
REF_FRAME      = TEME
TIME_SYSTEM    = UTC
MEAN_ELEMENT_THEORY = SGP/SGP4

EPOCH          = 2025-11-04T08:50:24.178560
MEAN_MOTION    = 13.04483157
ECCENTRICITY   = .00299963
INCLINATION    = 90.1300
RA_OF_ASC_NODE = 354.6040
ARG_OF_PERICENTER = 56.1937
MEAN_ANOMALY   = 304.2038

EPHEMERIS_TYPE = 0
CLASSIFICATION_TYPE = U
NORAD_CAT_ID   = 270015
ELEMENT_SET_NO = 999
REV_AT_EPOCH   = 28275
BSTAR          = .29628538E-2
MEAN_MOTION_DOT = .96E-5
MEAN_MOTION_DDOT = 0

CCSDS_OMM_VERS = 2.0
CREATION_DATE  = 
ORIGINATOR     = 

OBJECT_NAME    = UNKNOWN
OBJECT_ID      = 
CENTER_NAME    = EARTH
REF_FRAME      = TEME
TIME_SYSTEM    = UTC
MEAN_ELEMENT_THEORY = SGP/SGP4

EPOCH          = 2025-11-04T12:23:43.773504
MEAN_MOTION    = 13.81563087
ECCENTRICITY   = .02277875
INCLINATION    = 98.7150
RA_OF_ASC_NODE = 40.3156
ARG_OF_PERICENTER = 295.0936
MEAN_ANOMALY   = 62.6737

EPHEMERIS_TYPE = 0
CLASSIFICATION_TYPE = U
NORAD_CAT_ID   = 270016
ELEMENT_SET_NO = 999
REV_AT_EPOCH   = 29865
BSTAR          = .13066243E-2
MEAN_MOTION_DOT = .1655E-4
MEAN_MOTION_DDOT = 0

CCSDS_OMM_VERS = 2.0
CREATION_DATE  = 
ORIGINATOR     = 

OBJECT_NAME    = UNKNOWN
OBJECT_ID      = 
CENTER_NAME    = EARTH
REF_FRAME      = TEME
TIME_SYSTEM    = UTC
MEAN_ELEMENT_THEORY = SGP/SGP4

EPOCH          = 2025-11-03T21:49:56.472096
MEAN_MOTION    = 13.02268113
ECCENTRICITY   = .00395507
INCLINATION    = 90.2851
RA_OF_ASC_NODE = 18.4514
ARG_OF_PERICENTER = 140.9610
MEAN_ANOMALY   = 219.4380

EPHEMERIS_TYPE = 0
CLASSIFICATION_TYPE = U
NORAD_CAT_ID   = 270017
ELEMENT_SET_NO = 999
REV_AT_EPOCH   = 28210
BSTAR          = .2498348E-2
MEAN_MOTION_DOT = .787E-5
MEAN_MOTION_DDOT = 0

CCSDS_OMM_VERS = 2.0
CREATION_DATE  = 
ORIGINATOR     = 

OBJECT_NAME    = UNKNOWN
OBJECT_ID      = 
CENTER_NAME    = EARTH
REF_FRAME      = TEME
TIME_SYSTEM    = UTC
MEAN_ELEMENT_THEORY = SGP/SGP4

EPOCH          = 2025-11-01T00:03:19.920960
MEAN_MOTION    = 14.06951628
ECCENTRICITY   = .00612988
INCLINATION    = 99.8137
RA_OF_ASC_NODE = 44.3779
ARG_OF_PERICENTER = 242.4863
MEAN_ANOMALY   = 117.0065

EPHEMERIS_TYPE = 0
CLASSIFICATION_TYPE = U
NORAD_CAT_ID   = 270018
ELEMENT_SET_NO = 999
REV_AT_EPOCH   = 30252
BSTAR          = .4462013E-2
MEAN_MOTION_DOT = .7527E-4
MEAN_MOTION_DDOT = 0

CCSDS_OMM_VERS = 2.0
CREATION_DATE  = 
ORIGINATOR     = 

OBJECT_NAME    = UNKNOWN
OBJECT_ID      = 
CENTER_NAME    = EARTH
REF_FRAME      = TEME
TIME_SYSTEM    = UTC
MEAN_ELEMENT_THEORY = SGP/SGP4

EPOCH          = 2025-11-04T09:33:23.775840
MEAN_MOTION    = 12.95776087
ECCENTRICITY   = .00515507
INCLINATION    = 90.2501
RA_OF_ASC_NODE = 5.5400
ARG_OF_PERICENTER = 53.0218
MEAN_ANOMALY   = 307.5604

EPHEMERIS_TYPE = 0
CLASSIFICATION_TYPE = U
NORAD_CAT_ID   = 270019
ELEMENT_SET_NO = 999
REV_AT_EPOCH   = 28081
BSTAR          = .13938669E-2
MEAN_MOTION_DOT = .405E-5
MEAN_MOTION_DDOT = 0

CCSDS_OMM_VERS = 2.0
CREATION_DATE  = 
ORIGINATOR     = 

OBJECT_NAME    = UNKNOWN
OBJECT_ID      = 
CENTER_NAME    = EARTH
REF_FRAME      = TEME
TIME_SYSTEM    = UTC
MEAN_ELEMENT_THEORY = SGP/SGP4

EPOCH          = 2025-10-14T01:04:05.901600
MEAN_MOTION    = 13.95876709
ECCENTRICITY   = .00201988
INCLINATION    = 82.5356
RA_OF_ASC_NODE = 214.1665
ARG_OF_PERICENTER = 347.8650
MEAN_ANOMALY   = 12.2027

EPHEMERIS_TYPE = 0
CLASSIFICATION_TYPE = U
NORAD_CAT_ID   = 270020
ELEMENT_SET_NO = 999
REV_AT_EPOCH   = 29863
BSTAR          = .16808553E-2
MEAN_MOTION_DOT = .2315E-4
MEAN_MOTION_DDOT = 0

CCSDS_OMM_VERS = 2.0
CREATION_DATE  = 
ORIGINATOR     = 

OBJECT_NAME    = UNKNOWN
OBJECT_ID      = 
CENTER_NAME    = EARTH
REF_FRAME      = TEME
TIME_SYSTEM    = UTC
MEAN_ELEMENT_THEORY = SGP/SGP4

EPOCH          = 2025-11-03T10:59:49.256736
MEAN_MOTION    = 12.65795870
ECCENTRICITY   = .00517521
INCLINATION    = 82.7184
RA_OF_ASC_NODE = 209.0180
ARG_OF_PERICENTER = 170.6850
MEAN_ANOMALY   = 189.5215

EPHEMERIS_TYPE = 0
CLASSIFICATION_TYPE = U
NORAD_CAT_ID   = 270021
ELEMENT_SET_NO = 999
REV_AT_EPOCH   = 27409
BSTAR          = .17892596E-2
MEAN_MOTION_DOT = .348E-5
MEAN_MOTION_DDOT = 0

CCSDS_OMM_VERS = 2.0
CREATION_DATE  = 
ORIGINATOR     = 

OBJECT_NAME    = UNKNOWN
OBJECT_ID      = 
CENTER_NAME    = EARTH
REF_FRAME      = TEME
TIME_SYSTEM    = UTC
MEAN_ELEMENT_THEORY = SGP/SGP4

EPOCH          = 2025-11-04T08:09:19.595232
MEAN_MOTION    = 12.63738436
ECCENTRICITY   = .05024939
INCLINATION    = 100.1040
RA_OF_ASC_NODE = 165.1732
ARG_OF_PERICENTER = 158.1431
MEAN_ANOMALY   = 204.1937

EPHEMERIS_TYPE = 0
CLASSIFICATION_TYPE = U
NORAD_CAT_ID   = 270022
ELEMENT_SET_NO = 999
REV_AT_EPOCH   = 27088
BSTAR          = .119296E-1
MEAN_MOTION_DOT = .3522E-4
MEAN_MOTION_DDOT = 0

CCSDS_OMM_VERS = 2.0
CREATION_DATE  = 
ORIGINATOR     = 

OBJECT_NAME    = UNKNOWN
OBJECT_ID      = 
CENTER_NAME    = EARTH
REF_FRAME      = TEME
TIME_SYSTEM    = UTC
MEAN_ELEMENT_THEORY = SGP/SGP4

EPOCH          = 2025-10-26T19:34:11.936352
MEAN_MOTION    = 12.45682999
ECCENTRICITY   = .00229069
INCLINATION    = 73.6394
RA_OF_ASC_NODE = 321.7271
ARG_OF_PERICENTER = 129.5924
MEAN_ANOMALY   = 230.7150

EPHEMERIS_TYPE = 0
CLASSIFICATION_TYPE = U
NORAD_CAT_ID   = 270023
ELEMENT_SET_NO = 999
REV_AT_EPOCH   = 26887
BSTAR          = .19260596E-2
MEAN_MOTION_DOT = .26E-5
MEAN_MOTION_DDOT = 0

CCSDS_OMM_VERS = 2.0
CREATION_DATE  = 
ORIGINATOR     = 

OBJECT_NAME    = UNKNOWN
OBJECT_ID      = 
CENTER_NAME    = EARTH
REF_FRAME      = TEME
TIME_SYSTEM    = UTC
MEAN_ELEMENT_THEORY = SGP/SGP4

EPOCH          = 2025-10-23T05:24:43.410816
MEAN_MOTION    = 12.62471934
ECCENTRICITY   = .00004303
INCLINATION    = 51.9798
RA_OF_ASC_NODE = 280.0815
ARG_OF_PERICENTER = 15.5882
MEAN_ANOMALY   = 344.4998

EPHEMERIS_TYPE = 0
CLASSIFICATION_TYPE = U
NORAD_CAT_ID   = 270024
ELEMENT_SET_NO = 999
REV_AT_EPOCH   = 27253
BSTAR          = .17049852E-3
MEAN_MOTION_DOT = -.73E-6
MEAN_MOTION_DDOT = 0

CCSDS_OMM_VERS = 2.0
CREATION_DATE  = 
ORIGINATOR     = 

OBJECT_NAME    = UNKNOWN
OBJECT_ID      = 
CENTER_NAME    = EARTH
REF_FRAME      = TEME
TIME_SYSTEM    = UTC
MEAN_ELEMENT_THEORY = SGP/SGP4

EPOCH          = 2025-11-01T15:03:38.318976
MEAN_MOTION    = 14.21956110
ECCENTRICITY   = .00737047
INCLINATION    = 98.5834
RA_OF_ASC_NODE = 266.1291
ARG_OF_PERICENTER = 193.5285
MEAN_ANOMALY   = 166.3918

EPHEMERIS_TYPE = 0
CLASSIFICATION_TYPE = U
NORAD_CAT_ID   = 270025
ELEMENT_SET_NO = 999
REV_AT_EPOCH   = 30690
BSTAR          = .96258767E-3
MEAN_MOTION_DOT = .2142E-4
MEAN_MOTION_DDOT = 0

CCSDS_OMM_VERS = 2.0
CREATION_DATE  = 
ORIGINATOR     = 

OBJECT_NAME    = UNKNOWN
OBJECT_ID      = 
CENTER_NAME    = EARTH
REF_FRAME      = TEME
TIME_SYSTEM    = UTC
MEAN_ELEMENT_THEORY = SGP/SGP4

EPOCH          = 2025-11-01T14:43:22.336608
MEAN_MOTION    = 11.91940545
ECCENTRICITY   = .03816795
INCLINATION    = 103.3421
RA_OF_ASC_NODE = 60.8221
ARG_OF_PERICENTER = 10.7163
MEAN_ANOMALY   = 350.1727

EPHEMERIS_TYPE = 0
CLASSIFICATION_TYPE = U
NORAD_CAT_ID   = 270026
ELEMENT_SET_NO = 999
REV_AT_EPOCH   = 25794
BSTAR          = .92248899E-2
MEAN_MOTION_DOT = .783E-5
MEAN_MOTION_DDOT = 0

CCSDS_OMM_VERS = 2.0
CREATION_DATE  = 
ORIGINATOR     = 

OBJECT_NAME    = UNKNOWN
OBJECT_ID      = 
CENTER_NAME    = EARTH
REF_FRAME      = TEME
TIME_SYSTEM    = UTC
MEAN_ELEMENT_THEORY = SGP/SGP4

EPOCH          = 2025-11-01T09:53:10.264704
MEAN_MOTION    = 11.80026563
ECCENTRICITY   = .04847107
INCLINATION    = 100.9101
RA_OF_ASC_NODE = 197.7579
ARG_OF_PERICENTER = 221.2462
MEAN_ANOMALY   = 135.0986

EPHEMERIS_TYPE = 0
CLASSIFICATION_TYPE = U
NORAD_CAT_ID   = 270027
ELEMENT_SET_NO = 999
REV_AT_EPOCH   = 25508
BSTAR          = -.16393748E-1
MEAN_MOTION_DOT = -.1457E-4
MEAN_MOTION_DDOT = 0

CCSDS_OMM_VERS = 2.0
CREATION_DATE  = 
ORIGINATOR     = 

OBJECT_NAME    = UNKNOWN
OBJECT_ID      = 
CENTER_NAME    = EARTH
REF_FRAME      = TEME
TIME_SYSTEM    = UTC
MEAN_ELEMENT_THEORY = SGP/SGP4

EPOCH          = 2025-11-04T09:35:30.840864
MEAN_MOTION    = 13.95880881
ECCENTRICITY   = .00027704
INCLINATION    = 82.5229
RA_OF_ASC_NODE = 190.4970
ARG_OF_PERICENTER = 234.9352
MEAN_ANOMALY   = 125.1555

EPHEMERIS_TYPE = 0
CLASSIFICATION_TYPE = U
NORAD_CAT_ID   = 270029
ELEMENT_SET_NO = 999
REV_AT_EPOCH   = 30153
BSTAR          = .10313132E-2
MEAN_MOTION_DOT = .1424E-4
MEAN_MOTION_DDOT = 0

CCSDS_OMM_VERS = 2.0
CREATION_DATE  = 
ORIGINATOR     = 

OBJECT_NAME    = UNKNOWN
OBJECT_ID      = 
CENTER_NAME    = EARTH
REF_FRAME      = TEME
TIME_SYSTEM    = UTC
MEAN_ELEMENT_THEORY = SGP/SGP4

EPOCH          = 2025-10-26T22:00:15.546240
MEAN_MOTION    = 13.01982536
ECCENTRICITY   = .00370899
INCLINATION    = 90.2697
RA_OF_ASC_NODE = 15.8757
ARG_OF_PERICENTER = 180.0491
MEAN_ANOMALY   = 180.0635

EPHEMERIS_TYPE = 0
CLASSIFICATION_TYPE = U
NORAD_CAT_ID   = 270030
ELEMENT_SET_NO = 999
REV_AT_EPOCH   = 28097
BSTAR          = .14845155E-2
MEAN_MOTION_DOT = .468E-5
MEAN_MOTION_DDOT = 0

CCSDS_OMM_VERS = 2.0
CREATION_DATE  = 
ORIGINATOR     = 

OBJECT_NAME    = UNKNOWN
OBJECT_ID      = 
CENTER_NAME    = EARTH
REF_FRAME      = TEME
TIME_SYSTEM    = UTC
MEAN_ELEMENT_THEORY = SGP/SGP4

EPOCH          = 2025-10-10T11:45:47.051424
MEAN_MOTION    = 13.00100978
ECCENTRICITY   = .000822
INCLINATION    = 90.2632
RA_OF_ASC_NODE = 14.9559
ARG_OF_PERICENTER = 262.0524
MEAN_ANOMALY   = 97.9666

EPHEMERIS_TYPE = 0
CLASSIFICATION_TYPE = U
NORAD_CAT_ID   = 270031
ELEMENT_SET_NO = 999
REV_AT_EPOCH   = 27825
BSTAR          = .23693306E-2
MEAN_MOTION_DOT = .721E-5
MEAN_MOTION_DDOT = 0

